ONEWEB-0361             
1 49287U 21090J   24024.68821388  .00000054  00000+0  10125-3 0  9998
2 49287  87.9173  88.5169 0001843 107.8605 252.2730 13.20769915114861
ONEWEB-0362             
1 49288U 21090K   24024.78215042  .00000048  00000+0  87017-4 0  9992
2 49288  87.9203 119.0479 0001997  96.2396 263.8965 13.19724553111589
ONEWEB-0363             
1 49289U 21090L   24025.23429467  .00000104  00000+0  22338-3 0  9999
2 49289  87.9169  88.4026 0001531 112.1854 247.9442 13.20770397115776
ONEWEB-0364             
1 49290U 21090M   24024.74187113  .00000090  00000+0  19033-3 0  9997
2 49290  87.9171  88.5240 0002028 103.5675 256.5684 13.20770322116017
ONEWEB-0365             
1 49291U 21090N   24024.79162263  .00000020  00000+0  16866-4 0  9997
2 49291  87.9197 119.0356 0001863 101.6595 258.4747 13.19724209111095
ONEWEB-0366             
1 49292U 21090P   24025.22312113  .00000091  00000+0  21068-3 0  9995
2 49292  87.8967 103.6814 0001921 110.0108 250.1229 13.14501869114049
ONEWEB-0367             
1 49293U 21090Q   24025.23271472  .00000030  00000+0  41922-4 0  9994
2 49293  87.9171  88.3975 0002061 106.7068 253.4292 13.20770202115760
ONEWEB-0368             
1 49294U 21090R   24024.67558633  .00000025  00000+0  28969-4 0  9999
2 49294  87.9173  88.5375 0002239 126.0105 234.1236 13.20769927115545
